{"type": "FeatureCollection", "features": [ {"type": "Feature", "properties": {"norad_id": 66589, "name": "STARLINK-35447", "group": "last-30-days", "lat": -30.14397353166185, "lon": 59.73724048158165, "alt_km": 416.7655243377949, "timestamp": "2025-12-11T07:02:22.477912+00:00", "meta": {"OBJECT_NAME": "STARLINK-35447", "OBJECT_ID": "2025-270B", "EPOCH": "2025-12-10T22:00:03.000096", "MEAN_MOTION": 15.50595617, "ECCENTRICITY": 0.00019388, "INCLINATION": 42.9995, "RA_OF_ASC_NODE": 203.3914, "ARG_OF_PERICENTER": 257.6749, "MEAN_ANOMALY": 24.9254, "EPHEMERIS_TYPE": 0, "CLASSIFICATION_TYPE": "U", "NORAD_CAT_ID": 66589, "ELEMENT_SET_NO": 999, "REV_AT_EPOCH": 421, "BSTAR": -0.0013609402, "MEAN_MOTION_DOT": -0.00079427, "MEAN_MOTION_DDOT": 0}, "tle": {"line1": "1 66589U 25270B   25344.91670139 -.00079427  00000+0 -13609-2 0  9995", "line2": "2 66589  42.9995 203.3914 0001938 257.6749  24.9254 15.50595617  4214"}}, "geometry": {"type": "Point", "coordinates": [59.73724048158165, -30.14397353166185]}}, {"type": "Feature", "properties": {"norad_id": 66590, "name": "STARLINK-35429", "group": "last-30-days", "lat": -29.10929445413287, "lon": 57.88626343099645, "alt_km": 416.749186354401, "timestamp": "2025-12-11T07:02:22.477922+00:00", "meta": {"OBJECT_NAME": "STARLINK-35429", "OBJECT_ID": "2025-270C", "EPOCH": "2025-12-10T22:00:03.000096", "MEAN_MOTION": 15.50597064, "ECCENTRICITY": 0.00019114, "INCLINATION": 42.9998, "RA_OF_ASC_NODE": 203.3963, "ARG_OF_PERICENTER": 257.9427, "MEAN_ANOMALY": 22.7404, "EPHEMERIS_TYPE": 0, "CLASSIFICATION_TYPE": "U", "NORAD_CAT_ID": 66590, "ELEMENT_SET_NO": 999, "REV_AT_EPOCH": 421, "BSTAR": -0.0014540058, "MEAN_MOTION_DOT": -0.00084782, "MEAN_MOTION_DDOT": 0}, "tle": {"line1": "1 66590U 25270C   25344.91670139 -.00084782  00000+0 -14540-2 0  9992", "line2": "2 66590  42.9998 203.3963 0001911 257.9427  22.7404 15.50597064  4211"}}, "geometry": {"type": "Point", "coordinates": [57.88626343099645, -29.10929445413287]}}, {"type": "Feature", "properties": {"norad_id": 66591, "name": "STARLINK-36058", "group": "last-30-days", "lat": -31.15125438060429, "lon": 61.62456923021736, "alt_km": 416.8853405514428, "timestamp": "2025-12-11T07:02:22.477932+00:00", "meta": {"OBJECT_NAME": "STARLINK-36058", "OBJECT_ID": "2025-270D", "EPOCH": "2025-12-10T22:00:03.000096", "MEAN_MOTION": 15.50596388, "ECCENTRICITY": 0.00018437, "INCLINATION": 42.9999, "RA_OF_ASC_NODE": 203.3866, "ARG_OF_PERICENTER": 259.164, "MEAN_ANOMALY": 25.3532, "EPHEMERIS_TYPE": 0, "CLASSIFICATION_TYPE": "U", "NORAD_CAT_ID": 66591, "ELEMENT_SET_NO": 999, "REV_AT_EPOCH": 410, "BSTAR": -0.001435339, "MEAN_MOTION_DOT": -0.00083707, "MEAN_MOTION_DDOT": 0}, "tle": {"line1": "1 66591U 25270D   25344.91670139 -.00083707  00000+0 -14353-2 0  9991", "line2": "2 66591  42.9999 203.3866 0001843 259.1640  25.3532 15.50596388  4107"}}, "geometry": {"type": "Point", "coordinates": [61.62456923021736, -31.15125438060429]}}, {"type": "Feature", "properties": {"norad_id": 66592, "name": "STARLINK-36066", "group": "last-30-days", "lat": -32.12990795832247, "lon": 63.552274799377535, "alt_km": 416.8591585912891, "timestamp": "2025-12-11T07:02:22.477942+00:00", "meta": {"OBJECT_NAME": "STARLINK-36066", "OBJECT_ID": "2025-270E", "EPOCH": "2025-12-10T22:00:03.000096", "MEAN_MOTION": 15.50590607, "ECCENTRICITY": 0.00018786, "INCLINATION": 42.9999, "RA_OF_ASC_NODE": 203.3822, "ARG_OF_PERICENTER": 256.3542, "MEAN_ANOMALY": 30.0788, "EPHEMERIS_TYPE": 0, "CLASSIFICATION_TYPE": "U", "NORAD_CAT_ID": 66592, "ELEMENT_SET_NO": 999, "REV_AT_EPOCH": 400, "BSTAR": -0.001204177, "MEAN_MOTION_DOT": -0.00070385, "MEAN_MOTION_DDOT": 0}, "tle": {"line1": "1 66592U 25270E   25344.91670139 -.00070385  00000+0 -12042-2 0  9993", "line2": "2 66592  42.9999 203.3822 0001878 256.3542  30.0788 15.50590607  4001"}}, "geometry": {"type": "Point", "coordinates": [63.552274799377535, -32.12990795832247]}}, {"type": "Feature", "properties": {"norad_id": 66593, "name": "STARLINK-36031", "group": "last-30-days", "lat": -33.065437774560884, "lon": 65.49306131443268, "alt_km": 416.93735124190243, "timestamp": "2025-12-11T07:02:22.477954+00:00", "meta": {"OBJECT_NAME": "STARLINK-36031", "OBJECT_ID": "2025-270F", "EPOCH": "2025-12-10T22:00:03.000096", "MEAN_MOTION": 15.5053576, "ECCENTRICITY": 0.00015555, "INCLINATION": 42.9996, "RA_OF_ASC_NODE": 203.3771, "ARG_OF_PERICENTER": 239.0063, "MEAN_ANOMALY": 49.3312, "EPHEMERIS_TYPE": 0, "CLASSIFICATION_TYPE": "U", "NORAD_CAT_ID": 66593, "ELEMENT_SET_NO": 999, "REV_AT_EPOCH": 410, "BSTAR": 0.00054154613, "MEAN_MOTION_DOT": 0.00031507, "MEAN_MOTION_DDOT": 0}, "tle": {"line1": "1 66593U 25270F   25344.91670139  .00031507  00000+0  54155-3 0  9997", "line2": "2 66593  42.9996 203.3771 0001555 239.0063  49.3312 15.50535760  4106"}}, "geometry": {"type": "Point", "coordinates": [65.49306131443268, -33.065437774560884]}}, {"type": "Feature", "properties": {"norad_id": 66594, "name": "STARLINK-36032", "group": "last-30-days", "lat": -33.99709686069129, "lon": 67.53544555536565, "alt_km": 416.9356016830834, "timestamp": "2025-12-11T07:02:22.477966+00:00", "meta": {"OBJECT_NAME": "STARLINK-36032", "OBJECT_ID": "2025-270G", "EPOCH": "2025-12-10T22:00:03.000096", "MEAN_MOTION": 15.50598247, "ECCENTRICITY": 0.00018873, "INCLINATION": 42.9998, "RA_OF_ASC_NODE": 203.3726, "ARG_OF_PERICENTER": 256.6641, "MEAN_ANOMALY": 33.6008, "EPHEMERIS_TYPE": 0, "CLASSIFICATION_TYPE": "U", "NORAD_CAT_ID": 66594, "ELEMENT_SET_NO": 999, "REV_AT_EPOCH": 384, "BSTAR": -0.0014467975, "MEAN_MOTION_DOT": -0.00084371, "MEAN_MOTION_DDOT": 0}, "tle": {"line1": "1 66594U 25270G   25344.91670139 -.00084371  00000+0 -14468-2 0  9999", "line2": "2 66594  42.9998 203.3726 0001887 256.6641  33.6008 15.50598247  3841"}}, "geometry": {"type": "Point", "coordinates": [67.53544555536565, -33.99709686069129]}}, {"type": "Feature", "properties": {"norad_id": 66595, "name": "STARLINK-35711", "group": "last-30-days", "lat": -34.84858932801608, "lon": 69.51276569566102, "alt_km": 417.0996535013119, "timestamp": "2025-12-11T07:02:22.477976+00:00", "meta": {"OBJECT_NAME": "STARLINK-35711", "OBJECT_ID": "2025-270H", "EPOCH": "2025-12-10T22:00:03.000096", "MEAN_MOTION": 15.50473176, "ECCENTRICITY": 0.00015324, "INCLINATION": 42.9996, "RA_OF_ASC_NODE": 203.3667, "ARG_OF_PERICENTER": 233.4172, "MEAN_ANOMALY": 58.7661, "EPHEMERIS_TYPE": 0, "CLASSIFICATION_TYPE": "U", "NORAD_CAT_ID": 66595, "ELEMENT_SET_NO": 999, "REV_AT_EPOCH": 421, "BSTAR": 0.0015227586, "MEAN_MOTION_DOT": 0.00089682, "MEAN_MOTION_DDOT": 0}, "tle": {"line1": "1 66595U 25270H   25344.91670139  .00089682  00000+0  15228-2 0  9993", "line2": "2 66595  42.9996 203.3667 0001532 233.4172  58.7661 15.50473176  4211"}}, "geometry": {"type": "Point", "coordinates": [69.51276569566102, -34.84858932801608]}}, {"type": "Feature", "properties": {"norad_id": 66596, "name": "STARLINK-35811", "group": "last-30-days", "lat": -35.73101071124564, "lon": 71.69533414957154, "alt_km": 416.7855606905878, "timestamp": "2025-12-11T07:02:22.477987+00:00", "meta": {"OBJECT_NAME": "STARLINK-35811", "OBJECT_ID": "2025-270J", "EPOCH": "2025-12-10T22:00:03.000096", "MEAN_MOTION": 15.50540188, "ECCENTRICITY": 0.00020205, "INCLINATION": 42.9995, "RA_OF_ASC_NODE": 203.363, "ARG_OF_PERICENTER": 259.4499, "MEAN_ANOMALY": 34.6583, "EPHEMERIS_TYPE": 0, "CLASSIFICATION_TYPE": "U", "NORAD_CAT_ID": 66596, "ELEMENT_SET_NO": 999, "REV_AT_EPOCH": 421, "BSTAR": 0.0010769046, "MEAN_MOTION_DOT": 0.00063261, "MEAN_MOTION_DDOT": 0}, "tle": {"line1": "1 66596U 25270J   25344.91670139  .00063261  00000+0  10769-2 0  9994", "line2": "2 66596  42.9995 203.3630 0002020 259.4499  34.6583 15.50540188  4218"}}, "geometry": {"type": "Point", "coordinates": [71.69533414957154, -35.73101071124564]}}, {"type": "Feature", "properties": {"norad_id": 66597, "name": "STARLINK-35820", "group": "last-30-days", "lat": -36.54001204217286, "lon": 73.83284476176895, "alt_km": 417.0773222828684, "timestamp": "2025-12-11T07:02:22.477997+00:00", "meta": {"OBJECT_NAME": "STARLINK-35820", "OBJECT_ID": "2025-270K", "EPOCH": "2025-12-10T22:00:03.000096", "MEAN_MOTION": 15.50602117, "ECCENTRICITY": 0.00017886, "INCLINATION": 42.9997, "RA_OF_ASC_NODE": 203.3576, "ARG_OF_PERICENTER": 255.7197, "MEAN_ANOMALY": 40.2916, "EPHEMERIS_TYPE": 0, "CLASSIFICATION_TYPE": "U", "NORAD_CAT_ID": 66597, "ELEMENT_SET_NO": 999, "REV_AT_EPOCH": 421, "BSTAR": -0.0014976471, "MEAN_MOTION_DOT": -0.00087303, "MEAN_MOTION_DDOT": 0}, "tle": {"line1": "1 66597U 25270K   25344.91670139 -.00087303  00000+0 -14976-2 0  9994", "line2": "2 66597  42.9997 203.3576 0001788 255.7197  40.2916 15.50602117  4218"}}, "geometry": {"type": "Point", "coordinates": [73.83284476176895, -36.54001204217286]}}, {"type": "Feature", "properties": {"norad_id": 66598, "name": "STARLINK-35981", "group": "last-30-days", "lat": -37.300204173231904, "lon": 75.98708690900966, "alt_km": 417.12840332248925, "timestamp": "2025-12-11T07:02:22.478009+00:00", "meta": {"OBJECT_NAME": "STARLINK-35981", "OBJECT_ID": "2025-270L", "EPOCH": "2025-12-10T22:00:03.000096", "MEAN_MOTION": 15.50534674, "ECCENTRICITY": 0.00015826, "INCLINATION": 42.9997, "RA_OF_ASC_NODE": 203.3526, "ARG_OF_PERICENTER": 240.8771, "MEAN_ANOMALY": 57.0454, "EPHEMERIS_TYPE": 0, "CLASSIFICATION_TYPE": "U", "NORAD_CAT_ID": 66598, "ELEMENT_SET_NO": 999, "REV_AT_EPOCH": 394, "BSTAR": 0.00061308902, "MEAN_MOTION_DOT": 0.00035733, "MEAN_MOTION_DDOT": 0}, "tle": {"line1": "1 66598U 25270L   25344.91670139  .00035733  00000+0  61309-3 0  9996", "line2": "2 66598  42.9997 203.3526 0001582 240.8771  57.0454 15.50534674  3943"}}, "geometry": {"type": "Point", "coordinates": [75.98708690900966, -37.300204173231904]}}]}